{
  "norad_id": 57847,
  "name": "STARLINK-30416",
  "history": [
    {
      "epoch": "2026-03-28T16:14:03.443136",
      "apogee_km": 475.8222992822193,
      "perigee_km": 474.6209055192194,
      "latitude_deg": 20.67247758601249,
      "longitude_deg": 29.6371590399649,
      "semi_major_axis_km": 6853.358602400719,
      "eccentricity": 8.765e-05,
      "inclination_deg": 53.1597,
      "raan_deg": 195.9838,
      "arg_perigee_deg": 114.9644,
      "mean_anomaly_deg": 245.1448,
      "mean_motion_rev_day": 15.30197812
    }
  ]
}